{
  "type": "FeatureCollection",
  "features": [
    {
      "type": "Feature",
      "properties": {
        "norad_id": 40069,
        "name": "METEOR-M 2",
        "group": "weather",
        "lat": -20.086598784467004,
        "lon": 138.192517961946,
        "alt_km": 822.5647291332025,
        "timestamp": "2025-12-09T14:52:25.808132+00:00",
        "meta_object_name": "METEOR-M 2",
        "meta_object_id": "2014-037A",
        "meta_epoch": "2025-12-09T05:29:14.305920",
        "meta_mean_motion": 14.21383979,
        "meta_eccentricity": 0.00048093,
        "meta_inclination": 98.4898,
        "meta_ra_of_asc_node": 320.9475,
        "meta_arg_of_pericenter": 221.8446,
        "meta_mean_anomaly": 138.2365,
        "meta_ephemeris_type": 0,
        "meta_classification_type": "U",
        "meta_norad_cat_id": 40069,
        "meta_element_set_no": 999,
        "meta_rev_at_epoch": 59233,
        "meta_bstar": 0.00014343248,
        "meta_mean_motion_dot": 2.71e-06,
        "meta_mean_motion_ddot": 0,
        "tle_line1": "1 40069U 14037A   25343.22863780  .00000271  00000+0  14343-3 0  9994",
        "tle_line2": "2 40069  98.4898 320.9475 0004809 221.8446 138.2365 14.21383979592332"
      },
      "geometry": {
        "type": "Point",
        "coordinates": [
          138.192517961946,
          -20.086598784467004
        ]
      }
    },
    {
      "type": "Feature",
      "properties": {
        "norad_id": 40267,
        "name": "HIMAWARI-8",
        "group": "weather",
        "lat": 0.005871054719763859,
        "lon": 82.381385908478,
        "alt_km": 35790.84161735833,
        "timestamp": "2025-12-09T14:52:25.808144+00:00",
        "meta_object_name": "HIMAWARI-8",
        "meta_object_id": "2014-060A",
        "meta_epoch": "2025-12-09T04:20:38.774112",
        "meta_mean_motion": 1.0027064,
        "meta_eccentricity": 0.00012504,
        "meta_inclination": 0.0335,
        "meta_ra_of_asc_node": 218.5062,
        "meta_arg_of_pericenter": 77.7925,
        "meta_mean_anomaly": 347.7015,
        "meta_ephemeris_type": 0,
        "meta_classification_type": "U",
        "meta_norad_cat_id": 40267,
        "meta_element_set_no": 999,
        "meta_rev_at_epoch": 4085,
        "meta_bstar": 0,
        "meta_mean_motion_dot": -2.73e-06,
        "meta_mean_motion_ddot": 0,
        "tle_line1": "1 40267U 14060A   25343.18100433 -.00000273  00000+0  00000+0 0  9998",
        "tle_line2": "2 40267   0.0335 218.5062 0001250  77.7925 347.7015  1.00270640 40855"
      },
      "geometry": {
        "type": "Point",
        "coordinates": [
          82.381385908478,
          0.005871054719763859
        ]
      }
    },
    {
      "type": "Feature",
      "properties": {
        "norad_id": 40367,
        "name": "FENGYUN 2G",
        "group": "weather",
        "lat": -2.851764722488748,
        "lon": 41.45854764491127,
        "alt_km": 35796.47699550555,
        "timestamp": "2025-12-09T14:52:25.808157+00:00",
        "meta_object_name": "FENGYUN 2G",
        "meta_object_id": "2014-090A",
        "meta_epoch": "2025-12-08T17:30:10.330272",
        "meta_mean_motion": 1.00265504,
        "meta_eccentricity": 0.0003085,
        "meta_inclination": 5.1581,
        "meta_ra_of_asc_node": 75.1439,
        "meta_arg_of_pericenter": 197.6958,
        "meta_mean_anomaly": 167.0613,
        "meta_ephemeris_type": 0,
        "meta_classification_type": "U",
        "meta_norad_cat_id": 40367,
        "meta_element_set_no": 999,
        "meta_rev_at_epoch": 4009,
        "meta_bstar": 0,
        "meta_mean_motion_dot": -3e-06,
        "meta_mean_motion_ddot": 0,
        "tle_line1": "1 40367U 14090A   25342.72928623 -.00000300  00000+0  00000+0 0  9991",
        "tle_line2": "2 40367   5.1581  75.1439 0003085 197.6958 167.0613  1.00265504 40092"
      },
      "geometry": {
        "type": "Point",
        "coordinates": [
          41.45854764491127,
          -2.851764722488748
        ]
      }
    },
    {
      "type": "Feature",
      "properties": {
        "norad_id": 40732,
        "name": "METEOSAT-11 (MSG-4)",
        "group": "weather",
        "lat": -2.3513737227089067,
        "lon": -48.95989714255918,
        "alt_km": 35789.724494678085,
        "timestamp": "2025-12-09T14:52:25.808169+00:00",
        "meta_object_name": "METEOSAT-11 (MSG-4)",
        "meta_object_id": "2015-034A",
        "meta_epoch": "2025-12-09T05:03:28.023264",
        "meta_mean_motion": 1.00266394,
        "meta_eccentricity": 9.704e-05,
        "meta_inclination": 2.7265,
        "meta_ra_of_asc_node": 72.0117,
        "meta_arg_of_pericenter": 121.8112,
        "meta_mean_anomaly": 329.5993,
        "meta_ephemeris_type": 0,
        "meta_classification_type": "U",
        "meta_norad_cat_id": 40732,
        "meta_element_set_no": 999,
        "meta_rev_at_epoch": 531,
        "meta_bstar": 0,
        "meta_mean_motion_dot": 6.3e-07,
        "meta_mean_motion_ddot": 0,
        "tle_line1": "1 40732U 15034A   25343.21074101  .00000063  00000+0  00000+0 0  9999",
        "tle_line2": "2 40732   2.7265  72.0117 0000970 121.8112 329.5993  1.00266394  5310"
      },
      "geometry": {
        "type": "Point",
        "coordinates": [
          -48.95989714255918,
          -2.3513737227089067
        ]
      }
    },
    {
      "type": "Feature",
      "properties": {
        "norad_id": 41105,
        "name": "ELEKTRO-L 2",
        "group": "weather",
        "lat": -3.5234349920014902,
        "lon": -72.93150984005833,
        "alt_km": 35770.88265460664,
        "timestamp": "2025-12-09T14:52:25.808181+00:00",
        "meta_object_name": "ELEKTRO-L 2",
        "meta_object_id": "2015-074A",
        "meta_epoch": "2025-12-09T01:31:10.511904",
        "meta_mean_motion": 1.00271905,
        "meta_eccentricity": 0.00038363,
        "meta_inclination": 6.2161,
        "meta_ra_of_asc_node": 72.8685,
        "meta_arg_of_pericenter": 198.9202,
        "meta_mean_anomaly": 174.5582,
        "meta_ephemeris_type": 0,
        "meta_classification_type": "U",
        "meta_norad_cat_id": 41105,
        "meta_element_set_no": 999,
        "meta_rev_at_epoch": 3660,
        "meta_bstar": 0,
        "meta_mean_motion_dot": -1.16e-06,
        "meta_mean_motion_ddot": 0,
        "tle_line1": "1 41105U 15074A   25343.06331611 -.00000116  00000+0  00000+0 0  9993",
        "tle_line2": "2 41105   6.2161  72.8685 0003836 198.9202 174.5582  1.00271905 36608"
      },
      "geometry": {
        "type": "Point",
        "coordinates": [
          -72.93150984005833,
          -3.5234349920014902
        ]
      }
    },
    {
      "type": "Feature",
      "properties": {
        "norad_id": 41752,
        "name": "INSAT-3DR",
        "group": "weather",
        "lat": -0.0655233978959822,
        "lon": 15.879093956319942,
        "alt_km": 35803.126555644485,
        "timestamp": "2025-12-09T14:52:25.808194+00:00",
        "meta_object_name": "INSAT-3DR",
        "meta_object_id": "2016-054A",
        "meta_epoch": "2025-12-09T03:39:06.103008",
        "meta_mean_motion": 1.00270302,
        "meta_eccentricity": 0.0014519,
        "meta_inclination": 0.0833,
        "meta_ra_of_asc_node": 86.6915,
        "meta_arg_of_pericenter": 183.4993,
        "meta_mean_anomaly": 296.7401,
        "meta_ephemeris_type": 0,
        "meta_classification_type": "U",
        "meta_norad_cat_id": 41752,
        "meta_element_set_no": 999,
        "meta_rev_at_epoch": 3391,
        "meta_bstar": 0,
        "meta_mean_motion_dot": -7.5e-07,
        "meta_mean_motion_ddot": 0,
        "tle_line1": "1 41752U 16054A   25343.15215397 -.00000075  00000+0  00000+0 0  9996",
        "tle_line2": "2 41752   0.0833  86.6915 0014519 183.4993 296.7401  1.00270302 33917"
      },
      "geometry": {
        "type": "Point",
        "coordinates": [
          15.879093956319942,
          -0.0655233978959822
        ]
      }
    },
    {
      "type": "Feature",
      "properties": {
        "norad_id": 41836,
        "name": "HIMAWARI-9",
        "group": "weather",
        "lat": 0.018237859251329713,
        "lon": 82.49067433108257,
        "alt_km": 35791.17964082473,
        "timestamp": "2025-12-09T14:52:25.808206+00:00",
        "meta_object_name": "HIMAWARI-9",
        "meta_object_id": "2016-064A",
        "meta_epoch": "2025-12-09T03:58:11.773920",
        "meta_mean_motion": 1.00272664,
        "meta_eccentricity": 0.00012566,
        "meta_inclination": 0.0225,
        "meta_ra_of_asc_node": 72.887,
        "meta_arg_of_pericenter": 194.8332,
        "meta_mean_anomaly": 10.7648,
        "meta_ephemeris_type": 0,
        "meta_classification_type": "U",
        "meta_norad_cat_id": 41836,
        "meta_element_set_no": 999,
        "meta_rev_at_epoch": 3330,
        "meta_bstar": 0,
        "meta_mean_motion_dot": -2.72e-06,
        "meta_mean_motion_ddot": 0,
        "tle_line1": "1 41836U 16064A   25343.16541405 -.00000272  00000+0  00000+0 0  9992",
        "tle_line2": "2 41836   0.0225  72.8870 0001256 194.8332  10.7648  1.00272664 33302"
      },
      "geometry": {
        "type": "Point",
        "coordinates": [
          82.49067433108257,
          0.018237859251329713
        ]
      }
    }
  ]
}